{"type": "FeatureCollection", "features": [ {"type": "Feature", "properties": {"norad_id": 39778, "name": "IRIDIUM 33 DEB", "group": "iridium-33-debris", "lat": 58.02034189491432, "lon": 47.20648497817847, "alt_km": 701.3907611156537, "timestamp": "2025-12-16T23:36:36.584020+00:00", "meta": {"OBJECT_NAME": "IRIDIUM 33 DEB", "OBJECT_ID": "1997-051AAK", "EPOCH": "2025-12-15T02:45:26.160768", "MEAN_MOTION": 14.54282095, "ECCENTRICITY": 0.00077486, "INCLINATION": 86.3779, "RA_OF_ASC_NODE": 42.1948, "ARG_OF_PERICENTER": 34.959, "MEAN_ANOMALY": 325.2125, "EPHEMERIS_TYPE": 0, "CLASSIFICATION_TYPE": "U", "NORAD_CAT_ID": 39778, "ELEMENT_SET_NO": 999, "REV_AT_EPOCH": 60727, "BSTAR": 0.00058175197, "MEAN_MOTION_DOT": 2.487e-05, "MEAN_MOTION_DDOT": 0}, "tle": {"line1": "1 39778U 97051AAK 25349.11488612  .00002487  00000+0  58175-3 0  9999", "line2": "2 39778  86.3779  42.1948 0007748  34.9590 325.2125 14.54282095607272"}}, "geometry": {"type": "Point", "coordinates": [47.20648497817847, 58.02034189491432]}}, {"type": "Feature", "properties": {"norad_id": 39781, "name": "IRIDIUM 33 DEB", "group": "iridium-33-debris", "lat": 23.231722522510623, "lon": -102.20880046701332, "alt_km": 890.9781117865105, "timestamp": "2025-12-16T23:36:36.584030+00:00", "meta": {"OBJECT_NAME": "IRIDIUM 33 DEB", "OBJECT_ID": "1997-051AAN", "EPOCH": "2025-12-15T00:15:44.903232", "MEAN_MOTION": 14.2070789, "ECCENTRICITY": 0.01756389, "INCLINATION": 86.371, "RA_OF_ASC_NODE": 257.043, "ARG_OF_PERICENTER": 266.0338, "MEAN_ANOMALY": 111.7662, "EPHEMERIS_TYPE": 0, "CLASSIFICATION_TYPE": "U", "NORAD_CAT_ID": 39781, "ELEMENT_SET_NO": 999, "REV_AT_EPOCH": 8139, "BSTAR": 0.0031777078, "MEAN_MOTION_DOT": 8.021e-05, "MEAN_MOTION_DDOT": 0}, "tle": {"line1": "1 39781U 97051AAN 25349.01093638  .00008021  00000+0  31777-2 0  9990", "line2": "2 39781  86.3710 257.0430 0175638 266.0338 111.7662 14.20707890 81397"}}, "geometry": {"type": "Point", "coordinates": [-102.20880046701332, 23.231722522510623]}}, {"type": "Feature", "properties": {"norad_id": 40996, "name": "IRIDIUM 33 DEB", "group": "iridium-33-debris", "lat": -84.37642030235189, "lon": -140.18207474359704, "alt_km": 591.8208701002759, "timestamp": "2025-12-16T23:36:36.584040+00:00", "meta": {"OBJECT_NAME": "IRIDIUM 33 DEB", "OBJECT_ID": "1997-051ABJ", "EPOCH": "2025-12-16T00:05:33.352800", "MEAN_MOTION": 14.96464773, "ECCENTRICITY": 0.00116594, "INCLINATION": 86.3516, "RA_OF_ASC_NODE": 359.8847, "ARG_OF_PERICENTER": 54.6078, "MEAN_ANOMALY": 335.6485, "EPHEMERIS_TYPE": 0, "CLASSIFICATION_TYPE": "U", "NORAD_CAT_ID": 40996, "ELEMENT_SET_NO": 999, "REV_AT_EPOCH": 62537, "BSTAR": 0.0019705455, "MEAN_MOTION_DOT": 0.0002246, "MEAN_MOTION_DDOT": 0}, "tle": {"line1": "1 40996U 97051ABJ 25350.00385825  .00022460  00000+0  19705-2 0  9993", "line2": "2 40996  86.3516 359.8847 0011659  54.6078 335.6485 14.96464773625373"}}, "geometry": {"type": "Point", "coordinates": [-140.18207474359704, -84.37642030235189]}}, {"type": "Feature", "properties": {"norad_id": 40998, "name": "IRIDIUM 33 DEB", "group": "iridium-33-debris", "lat": -62.00380140579055, "lon": 45.00981772079986, "alt_km": 753.5866273654028, "timestamp": "2025-12-16T23:36:36.584051+00:00", "meta": {"OBJECT_NAME": "IRIDIUM 33 DEB", "OBJECT_ID": "1997-051ABL", "EPOCH": "2025-12-14T22:36:58.178592", "MEAN_MOTION": 14.45106117, "ECCENTRICITY": 0.00094247, "INCLINATION": 86.383, "RA_OF_ASC_NODE": 52.7149, "ARG_OF_PERICENTER": 78.6428, "MEAN_ANOMALY": 45.8037, "EPHEMERIS_TYPE": 0, "CLASSIFICATION_TYPE": "U", "NORAD_CAT_ID": 40998, "ELEMENT_SET_NO": 999, "REV_AT_EPOCH": 6713, "BSTAR": 0.0004149731, "MEAN_MOTION_DOT": 1.471e-05, "MEAN_MOTION_DDOT": 0}, "tle": {"line1": "1 40998U 97051ABL 25348.94234003  .00001471  00000+0  41497-3 0  9999", "line2": "2 40998  86.3830  52.7149 0009424  78.6428  45.8037 14.45106117 67136"}}, "geometry": {"type": "Point", "coordinates": [45.00981772079986, -62.00380140579055]}}, {"type": "Feature", "properties": {"norad_id": 46435, "name": "IRIDIUM 33 DEB", "group": "iridium-33-debris", "lat": -26.014133668801964, "lon": -169.69401635887468, "alt_km": 738.6872385275819, "timestamp": "2025-12-16T23:36:36.584061+00:00", "meta": {"OBJECT_NAME": "IRIDIUM 33 DEB", "OBJECT_ID": "1997-051ABN", "EPOCH": "2025-12-13T20:22:29.882208", "MEAN_MOTION": 14.32399442, "ECCENTRICITY": 0.0208315, "INCLINATION": 86.2839, "RA_OF_ASC_NODE": 193.4722, "ARG_OF_PERICENTER": 272.7642, "MEAN_ANOMALY": 103.0816, "EPHEMERIS_TYPE": 0, "CLASSIFICATION_TYPE": "U", "NORAD_CAT_ID": 46435, "ELEMENT_SET_NO": 999, "REV_AT_EPOCH": 7932, "BSTAR": 0.009141333, "MEAN_MOTION_DOT": 0.00031559, "MEAN_MOTION_DDOT": 0}, "tle": {"line1": "1 46435U 97051ABN 25347.84895697  .00031559  00000+0  91413-2 0  9993", "line2": "2 46435  86.2839 193.4722 0208315 272.7642 103.0816 14.32399442 79328"}}, "geometry": {"type": "Point", "coordinates": [-169.69401635887468, -26.014133668801964]}}, {"type": "Feature", "properties": {"norad_id": 46734, "name": "IRIDIUM 33 DEB", "group": "iridium-33-debris", "lat": -52.0547182432775, "lon": -3.806931248812303, "alt_km": 732.7873711842412, "timestamp": "2025-12-16T23:36:36.584071+00:00", "meta": {"OBJECT_NAME": "IRIDIUM 33 DEB", "OBJECT_ID": "1997-051ABR", "EPOCH": "2025-12-16T07:16:35.707584", "MEAN_MOTION": 14.41911222, "ECCENTRICITY": 0.00381217, "INCLINATION": 86.2633, "RA_OF_ASC_NODE": 1.2995, "ARG_OF_PERICENTER": 323.6514, "MEAN_ANOMALY": 53.8246, "EPHEMERIS_TYPE": 0, "CLASSIFICATION_TYPE": "U", "NORAD_CAT_ID": 46734, "ELEMENT_SET_NO": 999, "REV_AT_EPOCH": 63062, "BSTAR": 0.00075238, "MEAN_MOTION_DOT": 2.503e-05, "MEAN_MOTION_DDOT": 0}, "tle": {"line1": "1 46734U 97051ABR 25350.30319106  .00002503  00000+0  75238-3 0  9991", "line2": "2 46734  86.2633   1.2995 0038121 323.6514  53.8246 14.41911222630621"}}, "geometry": {"type": "Point", "coordinates": [-3.806931248812303, -52.0547182432775]}}, {"type": "Feature", "properties": {"norad_id": 46965, "name": "IRIDIUM 33 DEB", "group": "iridium-33-debris", "lat": 6.441173301538719, "lon": -20.769091994951733, "alt_km": 685.6280176248338, "timestamp": "2025-12-16T23:36:36.584082+00:00", "meta": {"OBJECT_NAME": "IRIDIUM 33 DEB", "OBJECT_ID": "1997-051ABX", "EPOCH": "2025-12-13T10:45:20.165184", "MEAN_MOTION": 14.60307321, "ECCENTRICITY": 0.00180716, "INCLINATION": 86.336, "RA_OF_ASC_NODE": 340.3836, "ARG_OF_PERICENTER": 330.9129, "MEAN_ANOMALY": 180.178, "EPHEMERIS_TYPE": 0, "CLASSIFICATION_TYPE": "U", "NORAD_CAT_ID": 46965, "ELEMENT_SET_NO": 999, "REV_AT_EPOCH": 62278, "BSTAR": 0.0013493066, "MEAN_MOTION_DOT": 6.553e-05, "MEAN_MOTION_DDOT": 0}, "tle": {"line1": "1 46965U 97051ABX 25347.44815006  .00006553  00000+0  13493-2 0  9991", "line2": "2 46965  86.3360 340.3836 0018071 330.9129 180.1780 14.60307321622786"}}, "geometry": {"type": "Point", "coordinates": [-20.769091994951733, 6.441173301538719]}}, {"type": "Feature", "properties": {"norad_id": 46971, "name": "IRIDIUM 33 DEB", "group": "iridium-33-debris", "lat": -56.06446282378795, "lon": -34.340467624673124, "alt_km": 577.4679589168154, "timestamp": "2025-12-16T23:36:36.584092+00:00", "meta": {"OBJECT_NAME": "IRIDIUM 33 DEB", "OBJECT_ID": "1997-051ACD", "EPOCH": "2025-12-16T06:30:44.080992", "MEAN_MOTION": 14.9823489, "ECCENTRICITY": 0.00028594, "INCLINATION": 86.3389, "RA_OF_ASC_NODE": 331.4549, "ARG_OF_PERICENTER": 295.1976, "MEAN_ANOMALY": 128.6572, "EPHEMERIS_TYPE": 0, "CLASSIFICATION_TYPE": "U", "NORAD_CAT_ID": 46971, "ELEMENT_SET_NO": 999, "REV_AT_EPOCH": 64283, "BSTAR": 0.0019357039, "MEAN_MOTION_DOT": 0.00023062, "MEAN_MOTION_DDOT": 0}, "tle": {"line1": "1 46971U 97051ACD 25350.27134353  .00023062  00000+0  19357-2 0  9991", "line2": "2 46971  86.3389 331.4549 0002859 295.1976 128.6572 14.98234890642830"}}, "geometry": {"type": "Point", "coordinates": [-34.340467624673124, -56.06446282378795]}}, {"type": "Feature", "properties": {"norad_id": 46974, "name": "IRIDIUM 33 DEB", "group": "iridium-33-debris", "lat": -20.180783748998273, "lon": -75.21420349833858, "alt_km": 688.1222388033793, "timestamp": "2025-12-16T23:36:36.584102+00:00", "meta": {"OBJECT_NAME": "IRIDIUM 33 DEB", "OBJECT_ID": "1997-051ACG", "EPOCH": "2025-12-14T14:09:41.074272", "MEAN_MOTION": 14.44439168, "ECCENTRICITY": 0.00956816, "INCLINATION": 86.2983, "RA_OF_ASC_NODE": 104.4675, "ARG_OF_PERICENTER": 181.0289, "MEAN_ANOMALY": 179.0732, "EPHEMERIS_TYPE": 0, "CLASSIFICATION_TYPE": "U", "NORAD_CAT_ID": 46974, "ELEMENT_SET_NO": 999, "REV_AT_EPOCH": 57535, "BSTAR": 0.0034715296, "MEAN_MOTION_DOT": 0.00012692, "MEAN_MOTION_DDOT": 0}, "tle": {"line1": "1 46974U 97051ACG 25348.59005873  .00012692  00000+0  34715-2 0  9992", "line2": "2 46974  86.2983 104.4675 0095681 181.0289 179.0732 14.44439168575351"}}, "geometry": {"type": "Point", "coordinates": [-75.21420349833858, -20.180783748998273]}}, {"type": "Feature", "properties": {"norad_id": 46979, "name": "IRIDIUM 33 DEB", "group": "iridium-33-debris", "lat": 4.357299307365617, "lon": -133.6971854631795, "alt_km": 584.7729271292992, "timestamp": "2025-12-16T23:36:36.584112+00:00", "meta": {"OBJECT_NAME": "IRIDIUM 33 DEB", "OBJECT_ID": "1997-051ACM", "EPOCH": "2025-12-08T11:38:51.411264", "MEAN_MOTION": 14.88966671, "ECCENTRICITY": 0.00280118, "INCLINATION": 86.3345, "RA_OF_ASC_NODE": 50.5282, "ARG_OF_PERICENTER": 237.8713, "MEAN_ANOMALY": 121.9794, "EPHEMERIS_TYPE": 0, "CLASSIFICATION_TYPE": "U", "NORAD_CAT_ID": 46979, "ELEMENT_SET_NO": 999, "REV_AT_EPOCH": 35365, "BSTAR": 0.0048738532, "MEAN_MOTION_DOT": 0.00046401, "MEAN_MOTION_DDOT": 0}, "tle": {"line1": "1 46979U 97051ACM 25342.48531726  .00046401  00000+0  48739-2 0  9996", "line2": "2 46979  86.3345  50.5282 0028011 237.8713 121.9794 14.88966671353652"}}, "geometry": {"type": "Point", "coordinates": [-133.6971854631795, 4.357299307365617]}}]}